NORAD_CAT_ID,OBJECT_NAME,OBJECT_TYPE,EPOCH,MEAN_MOTION,ECCENTRICITY,INCLINATION,RA_OF_ASC_NODE,ARG_OF_PERICENTER,MEAN_ANOMALY,BSTAR,MEAN_MOTION_DOT,MEAN_MOTION_DDOT,TLE_LINE0,TLE_LINE1,TLE_LINE2,SEMIMAJOR_AXIS,PERIOD,APOGEE,PERIGEE,DECAYED
51738.0,STARLINK-3515,PAYLOAD,2022-09-15 06:00:00,15.0884851,0.0001875999999999,53.2165,266.8358,42.9902,90.5388,-0.0011095,-0.00017907,0.0,0 STARLINK-3515,1 51738U 22016AA  22258.25001157 -.00017907  00000-0 -11095-2 0  9999,2 51738  53.2165 266.8358 0001876  42.9902  90.5388 15.08848510 32732,6917.854,95.437,541.0169999999998,538.422,0.0
51738.0,STARLINK-3515,PAYLOAD,2022-09-15 14:00:01,15.08855878,0.0001943,53.2165,265.3396,39.0954,106.0275,-0.00069121,-0.00011277,0.0,0 STARLINK-3515,1 51738U 22016AA  22258.58334491 -.00011277  00000-0 -69121-3 0  9993,2 51738  53.2165 265.3396 0001943  39.0954 106.0275 15.08855878  1309,6917.831999999999,95.437,541.0409999999998,538.3530000000002,0.0
51738.0,STARLINK-3515,PAYLOAD,2022-09-15 16:00:00,15.08876598,0.0001861,53.2167,264.9649,40.3913,197.6286,-0.0039453,-0.00062596,0.0,0 STARLINK-3515,1 51738U 22016AA  22258.66667824 -.00062596  00000-0 -39453-2 0  9995,2 51738  53.2167 264.9649 0001861  40.3913 197.6286 15.08876598  1306,6917.769,95.435,540.9209999999998,538.346,0.0
51738.0,STARLINK-3515,PAYLOAD,2022-09-16 05:15:26,15.08842386,0.0001861,53.2181,262.485,44.9161,315.1981,1.7426e-05,-1.1e-07,0.0,0 STARLINK-3515,1 51738U 22016AA  22259.21905821 -.00000011  00000-0  17426-4 0  9990,2 51738  53.2181 262.4850 0001861  44.9161 315.1981 15.08842386 32877,6917.873000000001,95.437,541.026,538.451,0.0
51738.0,STARLINK-3515,PAYLOAD,2022-09-16 06:50:49,15.08839414,0.0001761,53.2189,262.1867,56.5929,303.5231,-7.4299e-06,-4.06e-06,0.0,0 STARLINK-3515,1 51738U 22016AA  22259.28530042 -.00000406  00000-0 -74299-5 0  9997,2 51738  53.2189 262.1867 0001761  56.5929 303.5231 15.08839414 31775,6917.882,95.438,540.965,538.529,0.0
51738.0,STARLINK-3515,PAYLOAD,2022-09-17 03:30:51,15.08827143,0.0001302,53.219,258.3178,50.2486,309.862,2.9283e-05,1.78e-06,0.0,0 STARLINK-3515,1 51738U 22016AA  22260.14642643  .00000178  00000-0  29283-4 0  9991,2 51738  53.2190 258.3178 0001302  50.2486 309.8620 15.08827143 33015,6917.92,95.438,540.685,538.884,0.0
51738.0,STARLINK-3515,PAYLOAD,2022-09-17 06:41:37,15.08831337,0.0001583,53.2183,257.7248,46.2344,313.8779,-7.987e-05,-1.559e-05,0.0,0 STARLINK-3515,1 51738U 22016AA  22260.27890894 -.00001559  00000-0 -79870-4 0  9991,2 51738  53.2183 257.7248 0001583  46.2344 313.8779 15.08831337 33039,6917.906999999997,95.438,540.867,538.677,0.0
51738.0,STARLINK-3515,PAYLOAD,2022-09-18 03:21:38,15.08836607,0.0001553,53.2182,253.8594,38.2374,321.8729,-5.3889e-05,-1.145e-05,0.0,0 STARLINK-3515,1 51738U 22016AA  22261.14002895 -.00001145  00000-0 -53889-4 0  9997,2 51738  53.2182 253.8594 0001553  38.2374 321.8729 15.08836607 33163,6917.891,95.438,540.83,538.681,0.0
51738.0,STARLINK-3515,PAYLOAD,2022-09-18 06:32:24,15.08834615,0.0001714,53.2177,253.2646,40.8428,319.2693,2.7944e-05,1.57e-06,0.0,0 STARLINK-3515,1 51738U 22016AA  22261.27250798  .00000157  00000-0  27944-4 0  9991,2 51738  53.2177 253.2646 0001714  40.8428 319.2693 15.08834615 33187,6917.897,95.438,540.948,538.576,0.0
51738.0,STARLINK-3515,PAYLOAD,2022-09-18 16:04:43,15.088382500000002,0.000179,53.2181,251.4837,41.0543,319.0583,3.6119e-05,2.87e-06,0.0,0 STARLINK-3515,1 51738U 22016AA  22261.66994694  .00000287  00000-0  36119-4 0  9992,2 51738  53.2181 251.4837 0001790  41.0543 319.0583 15.08838250 32138,6917.886,95.438,540.989,538.512,0.0
51738.0,STARLINK-3515,PAYLOAD,2022-09-19 04:47:48,15.08839472,0.0001858,53.218,249.1041,41.8359,318.2775,0.00016573,2.35e-05,0.0,0 STARLINK-3515,1 51738U 22016AA  22262.19986169  .00002350  00000-0  16573-3 0  9993,2 51738  53.2180 249.1041 0001858  41.8359 318.2775 15.08839472 33329,6917.882,95.438,541.0319999999998,538.462,0.0
51738.0,STARLINK-3515,PAYLOAD,2022-09-19 09:33:57,15.0883951,0.000188,53.2183,248.213,43.1454,316.9685,0.00016121,2.278e-05,0.0,0 STARLINK-3515,1 51738U 22016AA  22262.39858216  .00002278  00000-0  16121-3 0  9994,2 51738  53.2183 248.2130 0001880  43.1454 316.9685 15.08839510 33358,6917.882,95.438,541.047,538.446,0.0
51738.0,STARLINK-3515,PAYLOAD,2022-09-19 15:55:30,15.08831966,0.0001678,53.2198,247.0225,51.8491,308.2652,5.0617e-05,5.17e-06,0.0,0 STARLINK-3515,1 51738U 22016AA  22262.66355097  .00000517  00000-0  50617-4 0  9996,2 51738  53.2198 247.0225 0001678  51.8491 308.2652 15.08831966 33397,6917.905,95.438,540.931,538.609,0.0
51738.0,STARLINK-3515,PAYLOAD,2022-09-19 23:52:28,15.08814022,0.0001978,53.2182,245.5369,50.4513,309.6654,-0.00014738,-2.631e-05,0.0,0 STARLINK-3515,1 51738U 22016AA  22262.99477418 -.00002631  00000-0 -14738-3 0  9998,2 51738  53.2182 245.5369 0001978  50.4513 309.6654 15.08814022 33442,6917.96,95.439,541.193,538.456,0.0
51738.0,STARLINK-3515,PAYLOAD,2022-09-20 09:24:46,15.08828972,0.0001831,53.2183,243.7519,39.8223,320.2903,-1.6394e-05,-5.49e-06,0.0,0 STARLINK-3515,1 51738U 22016AA  22263.39220348 -.00000549  00000-0 -16394-4 0  9998,2 51738  53.2183 243.7519 0001831  39.8223 320.2903 15.08828972 33509,6917.9140000000025,95.438,541.0459999999998,538.512,0.0
51738.0,STARLINK-3515,PAYLOAD,2022-09-20 15:46:18,15.08833996,0.0001801,53.2185,242.5625,39.218,320.8943,-1.9219e-06,-3.19e-06,0.0,0 STARLINK-3515,1 51738U 22016AA  22263.65716120 -.00000319  00000-0 -19219-5 0  9990,2 51738  53.2185 242.5625 0001801  39.2180 320.8943 15.08833996 33545,6917.899,95.438,541.01,538.518,0.0
51738.0,STARLINK-3515,PAYLOAD,2022-09-21 01:18:37,15.08838659,0.0001813,53.2189,240.7782,39.9486,320.164,-2.1952e-05,-6.37e-06,0.0,0 STARLINK-3515,1 51738U 22016AA  22264.05460005 -.00000637  00000-0 -21952-4 0  9992,2 51738  53.2189 240.7782 0001813  39.9486 320.1640 15.08838659 33607,6917.884,95.438,541.004,538.495,0.0
51738.0,STARLINK-3515,PAYLOAD,2022-09-21 07:40:09,15.08845654,0.000193,53.2185,239.58900000000003,42.8766,317.2376,1.6669000000000006e-05,-2.3e-07,0.0,0 STARLINK-3515,1 51738U 22016AA  22264.31955485 -.00000023  00000-0  16669-4 0  9999,2 51738  53.2185 239.5890 0001930  42.8766 317.2376 15.08845654 33643,6917.863,95.437,541.063,538.393,0.0
51738.0,STARLINK-3515,PAYLOAD,2022-09-21 15:37:04,15.08847179,0.0001971,53.2189,238.1023,43.1372,316.9774,6.5659e-05,7.57e-06,0.0,0 STARLINK-3515,1 51738U 22016AA  22264.65075167  .00000757  00000-0  65659-4 0  9992,2 51738  53.2189 238.1023 0001971  43.1372 316.9774 15.08847179 32586,6917.858,95.437,541.087,538.36,0.0
51738.0,STARLINK-3515,PAYLOAD,2022-09-23 04:10:56,15.0884955,0.0001628,53.2187,231.2613,41.868,318.2436,1.2106e-05,-9.5e-07,0.0,0 STARLINK-3515,1 51738U 22016AA  22266.17426945 -.00000095  00000-0  12106-4 0  9990,2 51738  53.2187 231.2613 0001628  41.8680 318.2436 15.08849550 33923,6917.851,95.437,540.842,538.59,0.0
51738.0,STARLINK-3515,PAYLOAD,2022-09-23 12:07:53,15.08841272,0.0001891,53.2184,229.7763,44.5501,315.5643,-2.9951e-05,-7.65e-06,0.0,0 STARLINK-3515,1 51738U 22016AA  22266.50547549 -.00000765  00000-0 -29951-4 0  9992,2 51738  53.2184 229.7763 0001891  44.5501 315.5643 15.08841272 33970,6917.877,95.437,541.05,538.433,0.0
51738.0,STARLINK-3515,PAYLOAD,2022-09-23 20:04:48,15.08846438,0.0001855999999999,53.2183,228.2892,48.3789,311.7362,5.4987e-06,-2.01e-06,0.0,0 STARLINK-3515,1 51738U 22016AA  22266.83667021 -.00000201  00000-0  54987-5 0  9998,2 51738  53.2183 228.2892 0001856  48.3789 311.7362 15.08846438 32915,6917.861,95.437,541.01,538.442,0.0
51738.0,STARLINK-3515,PAYLOAD,2022-09-24 04:01:43,15.08842855,0.0002032,53.2183,226.8028,45.8779,314.238,0.00013875,1.921e-05,0.0,0 STARLINK-3515,1 51738U 22016AA  22267.16786166  .00001921  00000-0  13875-3 0  9995,2 51738  53.2183 226.8028 0002032  45.8779 314.2380 15.08842855 34074,6917.871999999999,95.437,541.1419999999998,538.331,0.0
51738.0,STARLINK-3515,PAYLOAD,2022-09-24 08:47:52,15.08846908,0.0002048,53.2182,225.9107,46.4086,313.7076,0.00017073,2.431e-05,0.0,0 STARLINK-3515,1 51738U 22016AA  22267.36657812  .00002431  00000-0  17073-3 0  9993,2 51738  53.2182 225.9107 0002048  46.4086 313.7076 15.08846908 34109,6917.859,95.437,541.141,538.307,0.0
51738.0,STARLINK-3515,PAYLOAD,2022-09-24 19:55:34,15.08842542,0.0002049,53.2182,223.8293,46.6713,313.445,0.00011916,1.609e-05,0.0,0 STARLINK-3515,1 51738U 22016AA  22267.83026168  .00001609  00000-0  11916-3 0  9995,2 51738  53.2182 223.8293 0002049  46.6713 313.4450 15.08842542 34172,6917.873000000001,95.437,541.155,538.32,0.0
51738.0,STARLINK-3515,PAYLOAD,2022-09-25 03:52:30,15.08839901,0.0001976999999999,53.2184,222.3426,48.0179,312.0981,9.5017e-05,1.224e-05,0.0,0 STARLINK-3515,1 51738U 22016AA  22268.16146322  .00001224  00000-0  95017-4 0  9995,2 51738  53.2184 222.3426 0001977  48.0179 312.0981 15.08839901 34222,6917.880999999999,95.438,541.113,538.378,0.0
51738.0,STARLINK-3515,PAYLOAD,2022-09-25 08:38:40,15.08836894,0.0001969,53.2183,221.4507,46.846,313.2696,4.3338e-05,4.02e-06,0.0,0 STARLINK-3515,1 51738U 22016AA  22268.36018627  .00000402  00000-0  43338-4 0  9999,2 51738  53.2183 221.4507 0001969  46.8460 313.2696 15.08836894 34258,6917.89,95.438,541.117,538.393,0.0
51738.0,STARLINK-3515,PAYLOAD,2022-09-25 19:46:22,15.08830902,0.0001983,53.2183,219.3695,45.6154,314.5,-1.0757e-05,-4.59e-06,0.0,0 STARLINK-3515,1 51738U 22016AA  22268.82387220 -.00000459  00000-0 -10757-4 0  9991,2 51738  53.2183 219.3695 0001983  45.6154 314.5000 15.08830902 34320,6917.908,95.438,541.145,538.401,0.0
51738.0,STARLINK-3515,PAYLOAD,2022-09-26 08:29:27,15.08834781,0.0001972,53.2182,216.9902,46.2531,313.8624,-9.0377e-05,-1.726e-05,0.0,0 STARLINK-3515,1 51738U 22016AA  22269.35379230 -.00001726  00000-0 -90377-4 0  9996,2 51738  53.2182 216.9902 0001972  46.2531 313.8624 15.08834781 34409,6917.896,95.438,541.126,538.3969999999998,0.0
